     3.00           N                   E                   RINEX VERSION / TYPE
BRD_USR             ESA                 20190910 022213  UTCPGM / RUN BY / DATE
 GAL   1.7000E+01  1.1719E-02  1.3550E-02  0.0000E+00       IONOSPHERIC CORR
GAUT  9.3132257462E-10 0.000000000E+00  86400 2070 GSTB   0 TIME SYSTEM CORR
GPGA -3.4051481634E-09-1.465494393E-14 172800 2070 GSTB   0 TIME SYSTEM CORR
                                                            END OF HEADER
E09 2019 09 10 00 10 00 6.321267632302E-03-1.190869625134E-11 0.000000000000E+00
     3.300000000000E+01 1.131250000000E+01 3.191204355042E-09-1.375573344048E+00
     3.874301910400E-07 3.704180708155E-04 1.035630702972E-05 5.440626506805E+03
     1.734000000000E+05-1.490116119385E-08-3.097409540317E+00-9.313225746155E-09
     9.596735519469E-01 1.161875000000E+02-4.270796900176E-01-5.474870907492E-09
     5.275219734076E-10 5.210000000000E+02 2.070000000000E+03 0.000000000000E+00
     3.120000000000E+00 0.000000000000E+00-6.984919309616E-10-9.313225746155E-10
     1.740850000000E+05 0.000000000000E+00 0.000000000000E+00 0.000000000000E+00
E11 2019 09 10 00 10 00 5.596907692961E-03-1.344346856058E-11 0.000000000000E+00
     3.300000000000E+01-9.656250000000E+00 2.849047245682E-09-8.043763816650E-01
    -3.892928361893E-07 3.169964766130E-04 7.096678018570E-07 5.440603935242E+03
     1.734000000000E+05 3.725290298462E-09 1.087811213601E+00 1.862645149231E-08
     9.847230718857E-01 3.353437500000E+02 1.107018141555E+00-5.766311618596E-09
     9.107522222000E-11 5.210000000000E+02 2.070000000000E+03 0.000000000000E+00
     3.120000000000E+00 0.000000000000E+00-1.583248376846E-08-1.676380634308E-08
     1.740850000000E+05 0.000000000000E+00 0.000000000000E+00 0.000000000000E+00
E12 2019 09 10 00 10 00 6.206066871528E-03-1.868727395049E-11 0.000000000000E+00
     3.300000000000E+01-1.043750000000E+01 2.892263331520E-09 6.692588569749E-01
    -4.619359970093E-07 1.742229796946E-04 5.289912223816E-07 5.440603939056E+03
     1.734000000000E+05-1.862645149231E-08 1.087798284331E+00-4.284083843231E-08
     9.847372373214E-01 3.409687500000E+02 4.367065541009E-01-5.770597511406E-09
     6.750281176306E-11 5.210000000000E+02 2.070000000000E+03 0.000000000000E+00
     3.120000000000E+00 0.000000000000E+00-1.280568540096E-08-1.280568540096E-08
     1.740850000000E+05 0.000000000000E+00 0.000000000000E+00 0.000000000000E+00
E14 2019 09 10 00 10 00-7.139798253775E-04-1.429611984349E-11 0.000000000000E+00
     3.300000000000E+01 1.825000000000E+02 4.004095358072E-09 1.547174395464E+00
     6.739050149918E-06 1.664752991637E-01 6.519258022308E-08 5.289383884430E+03
     1.734000000000E+05 1.911073923111E-06 4.348677114257E-01-8.661299943924E-07
     8.835593725715E-01 2.688750000000E+02 1.593636834582E+00-5.712380800732E-09
    -3.210848030423E-10 5.210000000000E+02 2.070000000000E+03 0.000000000000E+00
     3.120000000000E+00 3.900000000000E+02-4.889443516731E-09-5.820766091347E-09
     1.740850000000E+05 0.000000000000E+00 0.000000000000E+00 0.000000000000E+00
E15 2019 09 10 00 10 00 8.960441919044E-04-1.463718035666E-12 0.000000000000E+00
     3.300000000000E+01-1.762500000000E+01 2.923693212129E-09 6.662348414582E-01
    -7.413327693939E-07 1.195240765810E-04 7.450580596924E-08 5.440598955154E+03
     1.734000000000E+05-9.872019290924E-08 1.083037751407E+00 1.862645149231E-09
     9.879090324337E-01 3.529687500000E+02-2.715708719163E+00-5.844529162385E-09
     1.785788670980E-11 5.210000000000E+02 2.070000000000E+03 0.000000000000E+00
     3.120000000000E+00 0.000000000000E+00 4.190951585770E-09 4.423782229424E-09
     1.740850000000E+05 0.000000000000E+00 0.000000000000E+00 0.000000000000E+00
E18 2019 09 10 00 10 00-8.083026623353E-04-1.423927642463E-11 0.000000000000E+00
     3.300000000000E+01 9.550000000000E+01 1.696142079697E-09-1.634907381826E+00
     6.888061761856E-06 1.665963117266E-01 2.402812242508E-07 5.289391384125E+03
     1.734000000000E+05 5.969777703285E-06 4.518925068853E-01 2.073124051094E-06
     8.828299074892E-01 3.468125000000E+02 1.578727439146E+00-2.763329389475E-09
    -2.142946405177E-12 5.210000000000E+02 2.070000000000E+03 0.000000000000E+00
     3.120000000000E+00 3.900000000000E+02-3.492459654808E-09-4.190951585770E-09
     1.740850000000E+05 0.000000000000E+00 0.000000000000E+00 0.000000000000E+00
E26 2019 09 10 00 10 00 4.125393636059E-03-4.361311312095E-11 0.000000000000E+00
     3.300000000000E+01-5.718750000000E+00 3.024054535438E-09-2.695847896086E-01
    -2.682209014893E-07 2.368860878050E-04-3.371387720108E-07 5.440607364655E+03
     1.734000000000E+05 2.421438694000E-08 1.090840156225E+00 7.450580596924E-08
     9.810926226972E-01 3.570937500000E+02 2.927584500708E+00-5.948462063036E-09
     6.178828801592E-11 5.210000000000E+02 2.070000000000E+03 0.000000000000E+00
     3.120000000000E+00 0.000000000000E+00 3.958120942116E-09 4.423782229424E-09
     1.740850000000E+05 0.000000000000E+00 0.000000000000E+00 0.000000000000E+00
E27 2019 09 10 00 10 00 3.905749763362E-04-7.773337529215E-12 0.000000000000E+00
     3.300000000000E+01 1.621875000000E+01 2.701898259193E-09 1.117188197361E+00
     5.792826414108E-07 3.169715637341E-04 1.086667180061E-05 5.440618782043E+03
     1.734000000000E+05-2.421438694000E-08-9.976141875038E-01-3.911554813385E-08
     9.857266980564E-01 1.189687500000E+02-1.862004814283E+00-5.234146594644E-09
    -6.789568527068E-10 5.210000000000E+02 2.070000000000E+03 0.000000000000E+00
     3.120000000000E+00 0.000000000000E+00-2.328306436539E-10-2.328306436539E-10
     1.740850000000E+05 0.000000000000E+00 0.000000000000E+00 0.000000000000E+00
E30 2019 09 10 00 10 00 4.559608059935E-03-3.065281362069E-11 0.000000000000E+00
     3.300000000000E+01 2.753125000000E+01 2.722613407777E-09-2.304550093876E-01
     1.173466444016E-06 3.103923518211E-05 9.944662451744E-06 5.440613426208E+03
     1.734000000000E+05-2.793967723846E-08-9.919655126253E-01-6.519258022308E-08
     9.837328840804E-01 1.329375000000E+02 2.672380086100E-01-5.296292040394E-09
    -6.807426413777E-10 5.210000000000E+02 2.070000000000E+03 0.000000000000E+00
     3.120000000000E+00 0.000000000000E+00-2.328306436539E-10-4.656612873077E-10
     1.740850000000E+05 0.000000000000E+00 0.000000000000E+00 0.000000000000E+00
E31 2019 09 10 00 10 00-4.682348808274E-04-4.405364961713E-13 0.000000000000E+00
     3.300000000000E+01-3.125000000000E-01 2.780472960717E-09-1.053318364355E+00
    -5.587935447693E-08 4.495877074078E-04 9.592622518539E-06 5.440619014740E+03
     1.734000000000E+05-1.676380634308E-08-9.976617250268E-01-5.587935447693E-09
     9.857286861621E-01 1.431562500000E+02-2.047875995192E+00-5.317721504445E-09
    -6.035965707914E-10 5.210000000000E+02 2.070000000000E+03 0.000000000000E+00
     3.120000000000E+00 0.000000000000E+00 2.561137080193E-09 2.793967723846E-09
     1.740850000000E+05 0.000000000000E+00 0.000000000000E+00 0.000000000000E+00
E01 2019 09 10 00 10 00-6.866848561913E-04-7.972289495228E-12 0.000000000000E+00
     3.300000000000E+01 3.843750000000E+00 2.757257707994E-09-1.748832705102E-01
     3.185123205185E-07 2.754530869424E-04 1.002848148346E-05 5.440611160278E+03
     1.734000000000E+05-1.862645149231E-08-9.949478335137E-01 2.235174179077E-08
     9.861914729819E-01 1.364687500000E+02-2.146649909568E+00-5.291648989849E-09
    -6.032394130572E-10 2.580000000000E+02 2.070000000000E+03 0.000000000000E+00
     3.120000000000E+00 0.000000000000E+00-2.095475792885E-09 0.000000000000E+00
     1.741000000000E+05 0.000000000000E+00 0.000000000000E+00 0.000000000000E+00
E08 2019 09 10 00 10 00 6.294278369751E-03-5.485389920068E-12 0.000000000000E+00
     3.300000000000E+01 5.562500000000E+00 3.186918462232E-09 2.402288573853E+00
     3.296881914139E-07 3.030600491911E-04 1.086667180061E-05 5.440627870560E+03
     1.734000000000E+05 0.000000000000E+00-3.097413305868E+00-1.862645149231E-09
     9.596431846934E-01 1.051875000000E+02-2.761387957292E-01-5.389510209019E-09
     6.060966749308E-10 2.580000000000E+02 2.070000000000E+03 0.000000000000E+00
     3.120000000000E+00 0.000000000000E+00-5.587935447693E-09 0.000000000000E+00
     1.741000000000E+05 0.000000000000E+00 0.000000000000E+00 0.000000000000E+00
E09 2019 09 10 00 10 00 6.321268912870E-03-1.190869625134E-11 0.000000000000E+00
     3.300000000000E+01 1.131250000000E+01 3.191204355042E-09-1.375573344048E+00
     3.874301910400E-07 3.704180708155E-04 1.035630702972E-05 5.440626506805E+03
     1.734000000000E+05-1.490116119385E-08-3.097409540317E+00-9.313225746155E-09
     9.596735519469E-01 1.161875000000E+02-4.270796900176E-01-5.474870907492E-09
     5.275219734076E-10 2.580000000000E+02 2.070000000000E+03 0.000000000000E+00
     3.120000000000E+00 0.000000000000E+00-6.984919309616E-10 0.000000000000E+00
     1.741000000000E+05 0.000000000000E+00 0.000000000000E+00 0.000000000000E+00
E11 2019 09 10 00 10 00 5.596910370514E-03-1.344346856058E-11 0.000000000000E+00
     3.300000000000E+01-9.656250000000E+00 2.849047245682E-09-8.043763816650E-01
    -3.892928361893E-07 3.169964766130E-04 7.096678018570E-07 5.440603935242E+03
     1.734000000000E+05 3.725290298462E-09 1.087811213601E+00 1.862645149231E-08
     9.847230718857E-01 3.353437500000E+02 1.107018141555E+00-5.766311618596E-09
     9.107522222000E-11 2.580000000000E+02 2.070000000000E+03 0.000000000000E+00
     3.120000000000E+00 0.000000000000E+00-1.583248376846E-08 0.000000000000E+00
     1.741000000000E+05 0.000000000000E+00 0.000000000000E+00 0.000000000000E+00
